{"type": "FeatureCollection", "features": [ {"type": "Feature", "properties": {"norad_id": 65077, "name": "CREW DRAGON 11", "group": "stations", "lat": -48.79482228888265, "lon": 51.03372642548104, "alt_km": 421.09600984985263, "timestamp": "2025-12-07T22:37:41.874456+00:00", "meta": {"OBJECT_NAME": "CREW DRAGON 11", "OBJECT_ID": "2025-166A", "EPOCH": "2025-12-07T04:30:36.916128", "MEAN_MOTION": 15.49384117, "ECCENTRICITY": 0.00034959, "INCLINATION": 51.6302, "RA_OF_ASC_NODE": 169.9669, "ARG_OF_PERICENTER": 214.2568, "MEAN_ANOMALY": 145.8196, "EPHEMERIS_TYPE": 0, "CLASSIFICATION_TYPE": "U", "NORAD_CAT_ID": 65077, "ELEMENT_SET_NO": 999, "REV_AT_EPOCH": 214, "BSTAR": 0.00024795554, "MEAN_MOTION_DOT": 0.00013419, "MEAN_MOTION_DDOT": 0}, "tle": {"line1": "1 65077U 25166A   25341.18792727  .00013419  00000+0  24796-3 0  9991", "line2": "2 65077  51.6302 169.9669 0003495 214.2568 145.8196 15.49384117  2143"}}, "geometry": {"type": "Point", "coordinates": [51.03372642548104, -48.79482228888265]}}, {"type": "Feature", "properties": {"norad_id": 65304, "name": "DRAGON CRS-33", "group": "stations", "lat": -48.794822547222154, "lon": 51.03372753278881, "alt_km": 421.0960098767482, "timestamp": "2025-12-07T22:37:41.874468+00:00", "meta": {"OBJECT_NAME": "DRAGON CRS-33", "OBJECT_ID": "2025-186A", "EPOCH": "2025-12-07T04:30:36.916128", "MEAN_MOTION": 15.49384117, "ECCENTRICITY": 0.00034959, "INCLINATION": 51.6302, "RA_OF_ASC_NODE": 169.9669, "ARG_OF_PERICENTER": 214.2568, "MEAN_ANOMALY": 145.8196, "EPHEMERIS_TYPE": 0, "CLASSIFICATION_TYPE": "U", "NORAD_CAT_ID": 65304, "ELEMENT_SET_NO": 999, "REV_AT_EPOCH": 11, "BSTAR": 0.00024795554, "MEAN_MOTION_DOT": 0.00013419, "MEAN_MOTION_DDOT": 0}, "tle": {"line1": "1 65304U 25186A   25341.18792727  .00013419  00000+0  24796-3 0  9996", "line2": "2 65304  51.6302 169.9669 0003495 214.2568 145.8196 15.49384117   111"}}, "geometry": {"type": "Point", "coordinates": [51.03372753278881, -48.794822547222154]}}, {"type": "Feature", "properties": {"norad_id": 65586, "name": "PROGRESS-MS 32", "group": "stations", "lat": -48.79482278403381, "lon": 51.03372854782283, "alt_km": 421.096009901401, "timestamp": "2025-12-07T22:37:41.874479+00:00", "meta": {"OBJECT_NAME": "PROGRESS-MS 32", "OBJECT_ID": "2025-204A", "EPOCH": "2025-12-07T04:30:36.916128", "MEAN_MOTION": 15.49384117, "ECCENTRICITY": 0.00034959, "INCLINATION": 51.6302, "RA_OF_ASC_NODE": 169.9669, "ARG_OF_PERICENTER": 214.2568, "MEAN_ANOMALY": 145.8196, "EPHEMERIS_TYPE": 0, "CLASSIFICATION_TYPE": "U", "NORAD_CAT_ID": 65586, "ELEMENT_SET_NO": 999, "REV_AT_EPOCH": 27, "BSTAR": 0.00024795554, "MEAN_MOTION_DOT": 0.00013419, "MEAN_MOTION_DDOT": 0}, "tle": {"line1": "1 65586U 25204A   25341.18792727  .00013419  00000+0  24796-3 0  9999", "line2": "2 65586  51.6302 169.9669 0003495 214.2568 145.8196 15.49384117   270"}}, "geometry": {"type": "Point", "coordinates": [51.03372854782283, -48.79482278403381]}}, {"type": "Feature", "properties": {"norad_id": 65616, "name": "CYGNUS NG-23", "group": "stations", "lat": -48.794822999316764, "lon": 51.03372947057957, "alt_km": 421.09600992381274, "timestamp": "2025-12-07T22:37:41.874489+00:00", "meta": {"OBJECT_NAME": "CYGNUS NG-23", "OBJECT_ID": "2025-208A", "EPOCH": "2025-12-07T04:30:36.916128", "MEAN_MOTION": 15.49384117, "ECCENTRICITY": 0.00034959, "INCLINATION": 51.6302, "RA_OF_ASC_NODE": 169.9669, "ARG_OF_PERICENTER": 214.2568, "MEAN_ANOMALY": 145.8196, "EPHEMERIS_TYPE": 0, "CLASSIFICATION_TYPE": "U", "NORAD_CAT_ID": 65616, "ELEMENT_SET_NO": 999, "REV_AT_EPOCH": 22, "BSTAR": 0.00024795554, "MEAN_MOTION_DOT": 0.00013419, "MEAN_MOTION_DDOT": 0}, "tle": {"line1": "1 65616U 25208A   25341.18792727  .00013419  00000+0  24796-3 0  9997", "line2": "2 65616  51.6302 169.9669 0003495 214.2568 145.8196 15.49384117   229"}}, "geometry": {"type": "Point", "coordinates": [51.03372947057957, -48.794822999316764]}}, {"type": "Feature", "properties": {"norad_id": 65729, "name": "DRAGONFLY", "group": "stations", "lat": -31.365896339312325, "lon": 9.17484445076894, "alt_km": 358.69379241154274, "timestamp": "2025-12-07T22:37:41.874499+00:00", "meta": {"OBJECT_NAME": "DRAGONFLY", "OBJECT_ID": "1998-067XH", "EPOCH": "2025-12-06T18:11:12.021792", "MEAN_MOTION": 15.69539731, "ECCENTRICITY": 0.00064636, "INCLINATION": 51.6244, "RA_OF_ASC_NODE": 166.34, "ARG_OF_PERICENTER": 240.1975, "MEAN_ANOMALY": 119.838, "EPHEMERIS_TYPE": 0, "CLASSIFICATION_TYPE": "U", "NORAD_CAT_ID": 65729, "ELEMENT_SET_NO": 999, "REV_AT_EPOCH": 1222, "BSTAR": 0.0016006166, "MEAN_MOTION_DOT": 0.00197078, "MEAN_MOTION_DDOT": 0}, "tle": {"line1": "1 65729U 98067XH  25340.75777803  .00197078  00000+0  16006-2 0  9993", "line2": "2 65729  51.6244 166.3400 0006463 240.1975 119.8380 15.69539731 12226"}}, "geometry": {"type": "Point", "coordinates": [9.17484445076894, -31.365896339312325]}}, {"type": "Feature", "properties": {"norad_id": 65731, "name": "1998-067XK", "group": "stations", "lat": -11.558047294968938, "lon": 152.21998693244606, "alt_km": 378.9499405207753, "timestamp": "2025-12-07T22:37:41.874509+00:00", "meta": {"OBJECT_NAME": "1998-067XK", "OBJECT_ID": "1998-067XK", "EPOCH": "2025-12-07T05:49:41.884032", "MEAN_MOTION": 15.64416852, "ECCENTRICITY": 0.00055141, "INCLINATION": 51.6277, "RA_OF_ASC_NODE": 165.0923, "ARG_OF_PERICENTER": 212.3483, "MEAN_ANOMALY": 147.7174, "EPHEMERIS_TYPE": 0, "CLASSIFICATION_TYPE": "U", "NORAD_CAT_ID": 65731, "ELEMENT_SET_NO": 999, "REV_AT_EPOCH": 1228, "BSTAR": 0.0011654996, "MEAN_MOTION_DOT": 0.00115237, "MEAN_MOTION_DDOT": 0}, "tle": {"line1": "1 65731U 98067XK  25341.24284588  .00115237  00000+0  11655-2 0  9996", "line2": "2 65731  51.6277 165.0923 0005514 212.3483 147.7174 15.64416852 12282"}}, "geometry": {"type": "Point", "coordinates": [152.21998693244606, -11.558047294968938]}}, {"type": "Feature", "properties": {"norad_id": 65732, "name": "RSP-03", "group": "stations", "lat": -51.59245997517534, "lon": 72.69218780468272, "alt_km": 369.18983286383536, "timestamp": "2025-12-07T22:37:41.874520+00:00", "meta": {"OBJECT_NAME": "RSP-03", "OBJECT_ID": "1998-067XL", "EPOCH": "2025-12-07T07:42:04.980672", "MEAN_MOTION": 15.66929092, "ECCENTRICITY": 0.000631, "INCLINATION": 51.6257, "RA_OF_ASC_NODE": 164.1062, "ARG_OF_PERICENTER": 215.9526, "MEAN_ANOMALY": 144.1047, "EPHEMERIS_TYPE": 0, "CLASSIFICATION_TYPE": "U", "NORAD_CAT_ID": 65732, "ELEMENT_SET_NO": 999, "REV_AT_EPOCH": 1231, "BSTAR": 0.0013579871, "MEAN_MOTION_DOT": 0.00149269, "MEAN_MOTION_DDOT": 0}, "tle": {"line1": "1 65732U 98067XL  25341.32089098  .00149269  00000+0  13580-2 0  9996", "line2": "2 65732  51.6257 164.1062 0006310 215.9526 144.1047 15.66929092 12318"}}, "geometry": {"type": "Point", "coordinates": [72.69218780468272, -51.59245997517534]}}, {"type": "Feature", "properties": {"norad_id": 65733, "name": "GHS-01", "group": "stations", "lat": 51.604687919504066, "lon": -110.89680568412707, "alt_km": 349.0416571051546, "timestamp": "2025-12-07T22:37:41.874530+00:00", "meta": {"OBJECT_NAME": "GHS-01", "OBJECT_ID": "1998-067XM", "EPOCH": "2025-12-07T05:28:08.173632", "MEAN_MOTION": 15.72081173, "ECCENTRICITY": 0.00068995, "INCLINATION": 51.6272, "RA_OF_ASC_NODE": 163.4841, "ARG_OF_PERICENTER": 242.1163, "MEAN_ANOMALY": 117.9137, "EPHEMERIS_TYPE": 0, "CLASSIFICATION_TYPE": "U", "NORAD_CAT_ID": 65733, "ELEMENT_SET_NO": 999, "REV_AT_EPOCH": 1231, "BSTAR": 0.0017831396, "MEAN_MOTION_DOT": 0.00245776, "MEAN_MOTION_DDOT": 0}, "tle": {"line1": "1 65733U 98067XM  25341.22787238  .00245776  00000+0  17831-2 0  9990", "line2": "2 65733  51.6272 163.4841 0006899 242.1163 117.9137 15.72081173 12318"}}, "geometry": {"type": "Point", "coordinates": [-110.89680568412707, 51.604687919504066]}}, {"type": "Feature", "properties": {"norad_id": 65941, "name": "YOTSUBA-KULOVER", "group": "stations", "lat": -24.54757653035979, "lon": 5.28645811647815, "alt_km": 393.6018273585478, "timestamp": "2025-12-07T22:37:41.874541+00:00", "meta": {"OBJECT_NAME": "YOTSUBA-KULOVER", "OBJECT_ID": "1998-067XN", "EPOCH": "2025-12-06T22:38:23.157312", "MEAN_MOTION": 15.58463042, "ECCENTRICITY": 0.00019742, "INCLINATION": 51.6276, "RA_OF_ASC_NODE": 169.0887, "ARG_OF_PERICENTER": 197.0362, "MEAN_ANOMALY": 163.0565, "EPHEMERIS_TYPE": 0, "CLASSIFICATION_TYPE": "U", "NORAD_CAT_ID": 65941, "ELEMENT_SET_NO": 999, "REV_AT_EPOCH": 895, "BSTAR": 0.0010714534, "MEAN_MOTION_DOT": 0.00083678, "MEAN_MOTION_DDOT": 0}, "tle": {"line1": "1 65941U 98067XN  25340.94332358  .00083678  00000+0  10715-2 0  9993", "line2": "2 65941  51.6276 169.0887 0001974 197.0362 163.0565 15.58463042  8958"}}, "geometry": {"type": "Point", "coordinates": [5.28645811647815, -24.54757653035979]}}, {"type": "Feature", "properties": {"norad_id": 65942, "name": "BOTAN", "group": "stations", "lat": 39.744332233508864, "lon": -57.71576146011411, "alt_km": 376.7565206333684, "timestamp": "2025-12-07T22:37:41.874551+00:00", "meta": {"OBJECT_NAME": "BOTAN", "OBJECT_ID": "1998-067XP", "EPOCH": "2025-12-06T18:26:46.199328", "MEAN_MOTION": 15.61316825, "ECCENTRICITY": 0.00039822, "INCLINATION": 51.627, "RA_OF_ASC_NODE": 169.4226, "ARG_OF_PERICENTER": 191.5132, "MEAN_ANOMALY": 168.5771, "EPHEMERIS_TYPE": 0, "CLASSIFICATION_TYPE": "U", "NORAD_CAT_ID": 65942, "ELEMENT_SET_NO": 999, "REV_AT_EPOCH": 893, "BSTAR": 0.001480583, "MEAN_MOTION_DOT": 0.00129965, "MEAN_MOTION_DDOT": 0}, "tle": {"line1": "1 65942U 98067XP  25340.76859027  .00129965  00000+0  14806-2 0  9996", "line2": "2 65942  51.6270 169.4226 0003982 191.5132 168.5771 15.61316825  8936"}}, "geometry": {"type": "Point", "coordinates": [-57.71576146011411, 39.744332233508864]}}]}